{"type": "FeatureCollection", "features": [ {"type": "Feature", "properties": {"norad_id": 31040, "name": "FENGYUN 1C DEB", "group": "fengyun-1c-debris", "lat": 21.79235963000675, "lon": -25.369490001419056, "alt_km": 876.7798351146666, "timestamp": "2025-12-14T07:33:19.758201+00:00", "meta": {"OBJECT_NAME": "FENGYUN 1C DEB", "OBJECT_ID": "1999-025BEJ", "EPOCH": "2025-12-13T06:06:58.449888", "MEAN_MOTION": 14.17672826, "ECCENTRICITY": 0.0062298, "INCLINATION": 98.6581, "RA_OF_ASC_NODE": 337.0901, "ARG_OF_PERICENTER": 192.6008, "MEAN_ANOMALY": 183.0791, "EPHEMERIS_TYPE": 0, "CLASSIFICATION_TYPE": "U", "NORAD_CAT_ID": 31040, "ELEMENT_SET_NO": 999, "REV_AT_EPOCH": 96714, "BSTAR": 0.00045723199, "MEAN_MOTION_DOT": 9.06e-06, "MEAN_MOTION_DDOT": 0}, "tle": {"line1": "1 31040U 99025BEJ 25347.25484317  .00000906  00000+0  45723-3 0  9996", "line2": "2 31040  98.6581 337.0901 0062298 192.6008 183.0791 14.17672826967143"}}, "geometry": {"type": "Point", "coordinates": [-25.369490001419056, 21.79235963000675]}}, {"type": "Feature", "properties": {"norad_id": 31041, "name": "FENGYUN 1C DEB", "group": "fengyun-1c-debris", "lat": -76.75154407727148, "lon": 153.47933447840038, "alt_km": 803.9470667756004, "timestamp": "2025-12-14T07:33:19.758211+00:00", "meta": {"OBJECT_NAME": "FENGYUN 1C DEB", "OBJECT_ID": "1999-025BEK", "EPOCH": "2025-12-13T13:23:15.179712", "MEAN_MOTION": 14.17848777, "ECCENTRICITY": 0.00869203, "INCLINATION": 99.2057, "RA_OF_ASC_NODE": 16.2297, "ARG_OF_PERICENTER": 317.9642, "MEAN_ANOMALY": 41.4884, "EPHEMERIS_TYPE": 0, "CLASSIFICATION_TYPE": "U", "NORAD_CAT_ID": 31041, "ELEMENT_SET_NO": 999, "REV_AT_EPOCH": 95501, "BSTAR": 0.0026141968, "MEAN_MOTION_DOT": 5.496e-05, "MEAN_MOTION_DDOT": 0}, "tle": {"line1": "1 31041U 99025BEK 25347.55781458  .00005496  00000+0  26142-2 0  9998", "line2": "2 31041  99.2057  16.2297 0086920 317.9642  41.4884 14.17848777955010"}}, "geometry": {"type": "Point", "coordinates": [153.47933447840038, -76.75154407727148]}}, {"type": "Feature", "properties": {"norad_id": 31043, "name": "FENGYUN 1C DEB", "group": "fengyun-1c-debris", "lat": -35.779042377739664, "lon": 179.69599623500883, "alt_km": 895.0291190094922, "timestamp": "2025-12-14T07:33:19.758224+00:00", "meta": {"OBJECT_NAME": "FENGYUN 1C DEB", "OBJECT_ID": "1999-025BEM", "EPOCH": "2025-12-12T23:58:56.546112", "MEAN_MOTION": 14.08429162, "ECCENTRICITY": 0.0041356, "INCLINATION": 98.7644, "RA_OF_ASC_NODE": 4.8011, "ARG_OF_PERICENTER": 3.4263, "MEAN_ANOMALY": 26.4552, "EPHEMERIS_TYPE": 0, "CLASSIFICATION_TYPE": "U", "NORAD_CAT_ID": 31043, "ELEMENT_SET_NO": 999, "REV_AT_EPOCH": 95991, "BSTAR": 0.00070435853, "MEAN_MOTION_DOT": 1.174e-05, "MEAN_MOTION_DDOT": 0}, "tle": {"line1": "1 31043U 99025BEM 25346.99926558  .00001174  00000+0  70436-3 0  9994", "line2": "2 31043  98.7644   4.8011 0041356   3.4263  26.4552 14.08429162959916"}}, "geometry": {"type": "Point", "coordinates": [179.69599623500883, -35.779042377739664]}}, {"type": "Feature", "properties": {"norad_id": 31046, "name": "FENGYUN 1C DEB", "group": "fengyun-1c-debris", "lat": -12.015578146763044, "lon": 110.06516996490103, "alt_km": 696.2657209002555, "timestamp": "2025-12-14T07:33:19.758235+00:00", "meta": {"OBJECT_NAME": "FENGYUN 1C DEB", "OBJECT_ID": "1999-025BEQ", "EPOCH": "2025-12-13T00:43:08.397984", "MEAN_MOTION": 14.63820373, "ECCENTRICITY": 0.00464401, "INCLINATION": 98.9674, "RA_OF_ASC_NODE": 106.742, "ARG_OF_PERICENTER": 102.2684, "MEAN_ANOMALY": 319.076, "EPHEMERIS_TYPE": 0, "CLASSIFICATION_TYPE": "U", "NORAD_CAT_ID": 31046, "ELEMENT_SET_NO": 999, "REV_AT_EPOCH": 96647, "BSTAR": 0.0059723208, "MEAN_MOTION_DOT": 0.0003175, "MEAN_MOTION_DDOT": 0}, "tle": {"line1": "1 31046U 99025BEQ 25347.02995831  .00031750  00000+0  59723-2 0  9990", "line2": "2 31046  98.9674 106.7420 0046440 102.2684 319.0760 14.63820373966475"}}, "geometry": {"type": "Point", "coordinates": [110.06516996490103, -12.015578146763044]}}, {"type": "Feature", "properties": {"norad_id": 31047, "name": "FENGYUN 1C DEB", "group": "fengyun-1c-debris", "lat": -38.18568872720495, "lon": 158.78836314291215, "alt_km": 839.5810428766281, "timestamp": "2025-12-14T07:33:19.758245+00:00", "meta": {"OBJECT_NAME": "FENGYUN 1C DEB", "OBJECT_ID": "1999-025BER", "EPOCH": "2025-12-12T05:34:00.054912", "MEAN_MOTION": 14.13841318, "ECCENTRICITY": 0.00255963, "INCLINATION": 98.7004, "RA_OF_ASC_NODE": 343.6788, "ARG_OF_PERICENTER": 179.2346, "MEAN_ANOMALY": 243.6594, "EPHEMERIS_TYPE": 0, "CLASSIFICATION_TYPE": "U", "NORAD_CAT_ID": 31047, "ELEMENT_SET_NO": 999, "REV_AT_EPOCH": 96352, "BSTAR": 0.00060318894, "MEAN_MOTION_DOT": 1.103e-05, "MEAN_MOTION_DDOT": 0}, "tle": {"line1": "1 31047U 99025BER 25346.23194508  .00001103  00000+0  60319-3 0  9998", "line2": "2 31047  98.7004 343.6788 0025596 179.2346 243.6594 14.13841318963525"}}, "geometry": {"type": "Point", "coordinates": [158.78836314291215, -38.18568872720495]}}, {"type": "Feature", "properties": {"norad_id": 31051, "name": "FENGYUN 1C DEB", "group": "fengyun-1c-debris", "lat": -76.21865513830436, "lon": 159.5581152225326, "alt_km": 914.5201685177744, "timestamp": "2025-12-14T07:33:19.758255+00:00", "meta": {"OBJECT_NAME": "FENGYUN 1C DEB", "OBJECT_ID": "1999-025BEV", "EPOCH": "2025-12-12T21:48:30.367584", "MEAN_MOTION": 14.03033745, "ECCENTRICITY": 0.00534524, "INCLINATION": 98.8183, "RA_OF_ASC_NODE": 17.4591, "ARG_OF_PERICENTER": 135.0078, "MEAN_ANOMALY": 225.5438, "EPHEMERIS_TYPE": 0, "CLASSIFICATION_TYPE": "U", "NORAD_CAT_ID": 31051, "ELEMENT_SET_NO": 999, "REV_AT_EPOCH": 63821, "BSTAR": 0.00016986752, "MEAN_MOTION_DOT": 2.25e-06, "MEAN_MOTION_DDOT": 0}, "tle": {"line1": "1 31051U 99025BEV 25346.90868481  .00000225  00000+0  16987-3 0  9991", "line2": "2 31051  98.8183  17.4591 0053452 135.0078 225.5438 14.03033745638218"}}, "geometry": {"type": "Point", "coordinates": [159.5581152225326, -76.21865513830436]}}, {"type": "Feature", "properties": {"norad_id": 31053, "name": "FENGYUN 1C DEB", "group": "fengyun-1c-debris", "lat": -24.87694427454152, "lon": 114.81860756022661, "alt_km": 1077.4452048646344, "timestamp": "2025-12-14T07:33:19.758265+00:00", "meta": {"OBJECT_NAME": "FENGYUN 1C DEB", "OBJECT_ID": "1999-025BEX", "EPOCH": "2025-12-09T07:15:11.826144", "MEAN_MOTION": 13.75848728, "ECCENTRICITY": 0.0309376, "INCLINATION": 98.7939, "RA_OF_ASC_NODE": 106.0672, "ARG_OF_PERICENTER": 104.1614, "MEAN_ANOMALY": 259.4116, "EPHEMERIS_TYPE": 0, "CLASSIFICATION_TYPE": "U", "NORAD_CAT_ID": 31053, "ELEMENT_SET_NO": 999, "REV_AT_EPOCH": 93429, "BSTAR": 0.0025997, "MEAN_MOTION_DOT": 3.538e-05, "MEAN_MOTION_DDOT": 0}, "tle": {"line1": "1 31053U 99025BEX 25343.30222021  .00003538  00000+0  25997-2 0  9998", "line2": "2 31053  98.7939 106.0672 0309376 104.1614 259.4116 13.75848728934294"}}, "geometry": {"type": "Point", "coordinates": [114.81860756022661, -24.87694427454152]}}, {"type": "Feature", "properties": {"norad_id": 31054, "name": "FENGYUN 1C DEB", "group": "fengyun-1c-debris", "lat": -33.98689869826668, "lon": 7.215774235570871, "alt_km": 864.8037146522938, "timestamp": "2025-12-14T07:33:19.758277+00:00", "meta": {"OBJECT_NAME": "FENGYUN 1C DEB", "OBJECT_ID": "1999-025BEY", "EPOCH": "2025-12-12T23:33:01.289952", "MEAN_MOTION": 14.12169943, "ECCENTRICITY": 0.00106903, "INCLINATION": 98.6903, "RA_OF_ASC_NODE": 0.0048, "ARG_OF_PERICENTER": 119.7825, "MEAN_ANOMALY": 270.232, "EPHEMERIS_TYPE": 0, "CLASSIFICATION_TYPE": "U", "NORAD_CAT_ID": 31054, "ELEMENT_SET_NO": 999, "REV_AT_EPOCH": 96767, "BSTAR": 0.00024010055, "MEAN_MOTION_DOT": 3.99e-06, "MEAN_MOTION_DDOT": 0}, "tle": {"line1": "1 31054U 99025BEY 25346.98126493  .00000399  00000+0  24010-3 0  9990", "line2": "2 31054  98.6903   0.0048 0010690 119.7825 270.2320 14.12169943967672"}}, "geometry": {"type": "Point", "coordinates": [7.215774235570871, -33.98689869826668]}}, {"type": "Feature", "properties": {"norad_id": 31055, "name": "FENGYUN 1C DEB", "group": "fengyun-1c-debris", "lat": 75.53179608941596, "lon": -17.21268424519952, "alt_km": 868.0316940760877, "timestamp": "2025-12-14T07:33:19.758290+00:00", "meta": {"OBJECT_NAME": "FENGYUN 1C DEB", "OBJECT_ID": "1999-025BEZ", "EPOCH": "2025-12-12T13:21:03.151008", "MEAN_MOTION": 14.10376228, "ECCENTRICITY": 0.00240023, "INCLINATION": 98.76, "RA_OF_ASC_NODE": 17.771, "ARG_OF_PERICENTER": 272.5475, "MEAN_ANOMALY": 242.1845, "EPHEMERIS_TYPE": 0, "CLASSIFICATION_TYPE": "U", "NORAD_CAT_ID": 31055, "ELEMENT_SET_NO": 999, "REV_AT_EPOCH": 96119, "BSTAR": 0.00051725973, "MEAN_MOTION_DOT": 8.78e-06, "MEAN_MOTION_DDOT": 0}, "tle": {"line1": "1 31055U 99025BEZ 25346.55628647  .00000878  00000+0  51726-3 0  9998", "line2": "2 31055  98.7600  17.7710 0024002 272.5475 242.1845 14.10376228961195"}}, "geometry": {"type": "Point", "coordinates": [-17.21268424519952, 75.53179608941596]}}, {"type": "Feature", "properties": {"norad_id": 31056, "name": "FENGYUN 1C DEB", "group": "fengyun-1c-debris", "lat": 62.61349299450882, "lon": -46.296199425423325, "alt_km": 837.0172282756857, "timestamp": "2025-12-14T07:33:19.758302+00:00", "meta": {"OBJECT_NAME": "FENGYUN 1C DEB", "OBJECT_ID": "1999-025BFA", "EPOCH": "2025-12-12T10:08:21.253344", "MEAN_MOTION": 14.14305059, "ECCENTRICITY": 0.00254469, "INCLINATION": 98.6669, "RA_OF_ASC_NODE": 328.991, "ARG_OF_PERICENTER": 343.9431, "MEAN_ANOMALY": 170.2622, "EPHEMERIS_TYPE": 0, "CLASSIFICATION_TYPE": "U", "NORAD_CAT_ID": 31056, "ELEMENT_SET_NO": 999, "REV_AT_EPOCH": 96813, "BSTAR": 0.00057540958, "MEAN_MOTION_DOT": 1.06e-05, "MEAN_MOTION_DDOT": 0}, "tle": {"line1": "1 31056U 99025BFA 25346.42246821  .00001060  00000+0  57541-3 0  9990", "line2": "2 31056  98.6669 328.9910 0025446 343.9431 170.2622 14.14305059968130"}}, "geometry": {"type": "Point", "coordinates": [-46.296199425423325, 62.61349299450882]}}]}